{"features":[{"geometry":{"coordinates":[[[21105.75776204868,14380.304403757502],[21119.577748283347,14391.053281940023],[21133.397734518017,14400.266606096471],[21147.217720752687,14404.873268174693],[21171.09004519929,14414.672319124591],[21197.685207712748,14422.935816048417],[21266.563512531815,14446.269905063195],[21336.59744048391,14466.311259671547],[21395.37591572942,14482.695779434302],[21444.798592733587,14497.687219255875],[21500.47429901919,14514.071739018626],[21550.735990078847,14526.577797581502],[21592.44923604489,14537.5483021183],[21672.535502208917,14561.468117926532],[21709.1830029343,14576.095457308931],[21748.901611711834,14593.20817795003],[21803.76996484971,14623.650140755608],[21850.469803787026,14652.319092726957],[21887.70303130586,14679.468321126107],[21921.975963949688,14707.931477197055],[21961.33047228805,14743.01176298861],[22009.4550520743,14778.915232381774],[22067.046243279026,14827.023981714148],[22113.397812231047,14864.827105572556],[22149.427925255226,14896.250556518515],[22186.075425980613,14929.557831475839],[22215.72586609234,14959.208271587564],[22243.25502538454,14987.671427658513],[22265.94006579036,15011.892022090407],[22289.432459343916,15047.589695583169],[22306.54517998501,15080.32707420092],[22313.85884967621,15109.993344766523],[22318.46551175443,15129.95554710549],[22320.001065780507,15156.059965548757],[22316.312570027152,15186.565250169842],[22306.418536353995,15210.785844601738],[22279.633408394013,15227.676938888557],[22241.57699727357,15234.990608579757],[22196.14359464642,15234.990608579757],[22134.009063178975,15232.853497306356],[22081.958530831216,15224.890779006195],[22023.306699216722,15212.068111365781],[21931.26844037552,15191.662656318254],[21855.139787680757,15168.534363203877],[21800.76217861307,15148.334704056753],[21761.154383012672,15130.477952083433],[21691.041302791193,15093.38719864949],[21667.358943791118,15080.770326909478],[21629.302532670674,15060.776463662756],[21618.442841311014,15056.122310222901],[21616.891456831065,15056.122310222901],[21604.480380991456,15049.916772303095],[21583.520860058234,15042.159849903337],[21563.35286181886,15034.402927503581],[21555.5959394191,15029.748774063726],[21535.807872072783,15025.094620623871],[21511.365651286607,15015.786313744162],[21472.549378380067,15005.30655327755],[21438.38725891338,14994.82679281094],[21412.013722754204,14983.96710145128],[21364.633174300176,14964.938895891059],[21314.134026432366,14943.187852263984],[21256.25788705785,14919.885424156957],[21200.32889351021,14895.997269256479],[21167.718158523476,14881.829013036515],[21100.517881815373,14855.803746862637],[21045.74451140076,14833.46697644211],[21025.956444054438,14822.021558288998],[21004.996923121216,14809.610482449385],[20973.93757261443,14782.239627695955],[20939.981249048153,14755.074568842927],[20924.467404248633,14738.009339563461],[20924.467404248633,14736.45795508351],[20922.916019768683,14737.993509109583],[20922.916019768683,14737.993509109583],[21105.75776204868,14380.304403757502]]],"plane":{"z":6},"type":"Polygon"},"properties":{"classification":{"color":[194,194,194],"name":"Unclassified"},"color":[194,194,194],"name":"Selection 1","objectType":"annotation"},"type":"Feature"},{"geometry":{"coordinates":[[[21318.297435802033,13750.53728762046],[21346.07988235626,13766.700181028935],[21370.64874677346,13777.449059211456],[21401.50230137984,13788.783664187427],[21435.42696403837,13804.360830802449],[21472.42273474905,13817.816716597948],[21510.257519515213,13830.908501954273],[21578.328471186556,13849.414302536552],[21702.67668639083,13879.555486718467],[21776.209144649754,13892.868898429071],[21853.604233654678,13908.3035909592],[21939.563598207096,13927.616744689209],[22024.335678718733,13947.29399885839],[22118.43189656395,13971.229645120498],[22183.02014838234,13981.836049218124],[22237.508570627168,13994.563734135278],[22348.685848205732,14028.37758361667],[22445.504904117806,14064.29688346371],[22528.34566925644,14105.2186067359],[22592.158228834855,14147.121818148467],[22618.1360036471,14182.582034833073],[22632.779173483377,14219.577805543753],[22638.92138958768,14246.869508027798],[22638.889728679922,14300.2023071396],[22624.13574566651,14341.456469943207],[22593.282191060123,14373.592291313631],[22526.477675698952,14395.754926741509],[22455.39893779097,14406.962888086466],[22359.45055684213,14409.669895699442],[22263.502175893293,14409.669895699442],[22139.56555248982,14403.638492772283],[22013.713444167228,14393.332867298319],[21939.911868192394,14384.78442220471],[21840.11668695143,14372.341685457344],[21756.23111185691,14361.65612909033],[21637.011963708803,14338.907766869],[21547.28495113365,14316.950927341524],[21453.679477358615,14280.208443892878],[21379.29217459033,14235.329107151423],[21316.366120429033,14198.618284610531],[21262.38427270827,14172.213087543601],[21216.95087008112,14153.18488198338],[21188.234426748142,14141.739463830269],[21183.58027330829,14138.636694870365],[21183.58027330829,14138.636694870365],[21318.297435802033,13750.53728762046]]],"plane":{"z":6},"type":"Polygon"},"properties":{"classification":{"color":[194,194,194],"name":"Unclassified"},"color":[194,194,194],"name":"Selection 2","objectType":"annotation"},"type":"Feature"},{"geometry":{"coordinates":[[[22964.648808561982,15786.112029855585],[23109.497461537045,15825.703995002103],[23145.448422291836,15832.06783746068],[23223.650864444495,15849.623810810335],[23309.578568089153,15875.88653379237],[23400.223746989177,15903.320710361308],[23477.618835994108,15929.377637442944],[23524.31867493142,15951.318646516542],[23612.969216642934,15998.525059977923],[23666.729438009417,16028.254652359035],[23747.623057321172,16073.086497738857],[23873.332691558873,16128.508916762432],[24012.846481577373,16182.886525830118],[24113.62315095871,16212.679440026737],[24214.035719900876,16243.659638264136],[24312.865243455333,16282.950824786989],[24381.363617381354,16319.281716434833],[24419.19840214752,16343.961394029162],[24444.95455060549,16366.044877187656],[24473.29106304542,16412.74471612497],[24492.160964066872,16464.510300302944],[24505.474375777474,16535.684020934186],[24519.737614720703,16598.340957379576],[24525.151629946657,16664.116493238744],[24509.22619334634,16721.707684443474],[24471.549713118944,16764.956484435592],[24403.193813277816,16799.878465688376],[24301.467316663853,16813.19187739898],[24264.20242823727,16804.84922820577],[24176.42256148899,16768.89826745098],[24100.673839687275,16751.801377263757],[24009.82286488685,16751.801377263757],[23907.30484557904,16751.801377263757],[23840.50033021786,16751.801377263757],[23772.92012261671,16751.801377263757],[23671.130304187238,16749.078539196904],[23590.695768037916,16744.804316650097],[23494.763217542957,16730.22446862933],[23412.03326558146,16705.544791034998],[23299.827008500888,16664.908015932597],[23244.499572200577,16639.468476552167],[23173.420834292596,16602.171927217823],[23119.613121564482,16564.87537788348],[23062.70263987647,16516.513341289072],[22983.62952276057,16449.281403673216],[22935.853212959617,16418.60198405948],[22879.52845806505,16385.199726378894],[22824.770918104317,16349.660357424902],[22788.2817219177,16321.118049084573],[22710.015957949534,16269.209990821704],[22703.81042002973,16264.55583738185],[22703.81042002973,16264.55583738185],[22964.648808561982,15786.112029855585]]],"plane":{"z":6},"type":"Polygon"},"properties":{"classification":{"color":[194,194,194],"name":"Unclassified"},"color":[194,194,194],"name":"Selection 4","objectType":"annotation"},"type":"Feature"},{"geometry":{"coordinates":[[[20083.000411532394,5485.770564211637],[20169.57671427949,5372.60246420871],[20210.99402681955,5321.254409684612],[20253.14084884185,5264.6821259651215],[20298.064513409452,5201.191268446323],[20329.80994216885,5146.360394458631],[20356.66059762806,5093.270930202736],[20398.76035452247,5025.426548354444],[20434.741644791648,4980.432286095015],[20476.535478354803,4931.95520437199],[20518.847028324708,4886.090237246662],[20575.066323585044,4835.001040925939],[20637.027564447533,4751.272178415977],[20678.233083912106,4669.284725637813],[20723.297943863363,4574.589688330311],[20779.446641431878,4492.602235552146],[20831.100619287237,4438.336143099091],[20867.976146986257,4405.743542037736],[20883.43704149695,4401.131159504866],[20890.285017604423,4403.413818207358],[20910.828945926853,4430.805722637261],[20929.09021554679,4453.632309662181],[20942.786167761744,4478.741555389593],[20955.940871005998,4522.841580219179],[20962.788847113472,4556.563744349808],[20962.788847113472,4615.606947283337],[20965.071505815966,4663.236856704406],[20965.071505815966,4722.280059637935],[20946.88083388786,4803.326209858371],[20935.914659090322,4860.086754089408],[20931.30227655745,4898.37423562502],[20923.512997892245,4937.908943049623],[20907.063735695938,4996.952145983152],[20890.920396830894,5050.182805622708],[20869.858752101714,5109.226008556237],[20845.055429705564,5170.0341537855065],[20817.94591604298,5212.369236319352],[20776.38740811926,5274.942323844363],[20712.5906272692,5347.8226743765035],[20691.834905871285,5370.649261401423],[20632.6505075541,5438.09358966268],[20561.62922957347,5512.738882490561],[20492.914142859277,5599.22105498188],[20438.648050406227,5672.124938077964],[20404.619962944333,5707.235523481242],[20368.285684216007,5744.628767587012],[20347.52996281809,5765.172695909439],[20333.692815219485,5783.433965529375],[20318.984962754967,5803.460177445052],[20318.984962754967,5803.460177445052],[20083.000411532394,5485.770564211637]]],"plane":{"z":6},"type":"Polygon"},"properties":{"classification":{"color":[194,194,194],"name":"Unclassified"},"color":[194,194,194],"name":"Selection 5","objectType":"annotation"},"type":"Feature"},{"geometry":{"coordinates":[[[17503.355908956863,7337.588361089418],[17788.205552164633,7048.048592316854],[17821.539663474934,7022.62529365447],[17948.474993138432,6927.494248936787],[18013.553001511744,6875.6411868985415],[18054.717408292883,6834.174840703361],[18099.323924394106,6776.4037661498805],[18126.941316131866,6727.529839663522],[18154.09573410143,6676.683242338752],[18169.253092686366,6642.14137337228],[18193.99199534359,6570.541473655651],[18208.223406392128,6466.835349579159],[18205.505951665746,6372.972450400455],[18191.173894145857,6285.571054682265],[18185.73898469309,6207.046677736924],[18185.73898469309,6167.0698993176875],[18191.596609325516,6121.658211445683],[18199.406775502084,6092.06814886951],[18211.122024766937,6070.368769646984],[18239.967303455138,6066.42342797016],[18259.49271889656,6070.328511058445],[18291.800236199113,6087.438411187525],[18324.550597975598,6111.6136936052],[18346.02855496116,6133.091650590762],[18365.55397040258,6156.5221491204675],[18389.729252820256,6191.225052441093],[18411.20720980582,6214.655550970798],[18428.780083703095,6239.595746570714],[18444.400416056233,6261.073703556276],[18476.244959590593,6302.238110337415],[18503.862351328353,6343.422646412822],[18527.11168620963,6396.906181286898],[18541.806071026367,6446.967736135157],[18556.50045584311,6502.444071141914],[18553.783001116724,6581.632714798147],[18534.277714969576,6662.814158587062],[18517.489883548806,6728.636950848344],[18506.881745468778,6771.774028467895],[18486.14857237119,6834.617685177289],[18459.49738675836,6893.99910327233],[18429.38396253118,6935.9284232357095],[18371.3512071522,6990.921655179998],[18297.75850730289,7055.979534259039],[18228.594252192866,7110.489663140859],[18166.61615513706,7151.93588004177],[18118.487012538673,7189.617918914285],[18073.07532466667,7226.555173898827],[18026.17406901872,7256.427046594772],[17966.913426689298,7294.39089558706],[17874.11738010688,7387.93172605745],[17828.04142552398,7442.300949879384],[17826.06875468557,7442.300949879384],[17786.091976266332,7466.013258528861],[17756.985016752627,7484.330916314111],[17747.12166256057,7492.141082490679],[17745.14899172216,7492.141082490679],[17745.14899172216,7492.141082490679],[17503.355908956863,7337.588361089418]]],"plane":{"z":6},"type":"Polygon"},"properties":{"classification":{"color":[194,194,194],"name":"Unclassified"},"color":[194,194,194],"name":"Selection 6","objectType":"annotation"},"type":"Feature"}],"type":"FeatureCollection"}